CCSDS_OMM_VERS = 2.0
CREATION_DATE  = 
ORIGINATOR     = 

OBJECT_NAME    = STARLINK-35437
OBJECT_ID      = 2025-268G
CENTER_NAME    = EARTH
REF_FRAME      = TEME
TIME_SYSTEM    = UTC
MEAN_ELEMENT_THEORY = SGP/SGP4

EPOCH          = 2025-12-07T22:00:03.000096
MEAN_MOTION    = 15.56246658
ECCENTRICITY   = .00014345
INCLINATION    = 43.0000
RA_OF_ASC_NODE = 149.4092
ARG_OF_PERICENTER = 282.3984
MEAN_ANOMALY   = 219.8518

EPHEMERIS_TYPE = 0
CLASSIFICATION_TYPE = U
NORAD_CAT_ID   = 66563
ELEMENT_SET_NO = 999
REV_AT_EPOCH   = 389
BSTAR          = -.31118189E-1
MEAN_MOTION_DOT = -.2007251E-1
MEAN_MOTION_DDOT = 0

CCSDS_OMM_VERS = 2.0
CREATION_DATE  = 
ORIGINATOR     = 

OBJECT_NAME    = STARLINK-35358
OBJECT_ID      = 2025-268H
CENTER_NAME    = EARTH
REF_FRAME      = TEME
TIME_SYSTEM    = UTC
MEAN_ELEMENT_THEORY = SGP/SGP4

EPOCH          = 2025-12-07T22:00:03.000096
MEAN_MOTION    = 15.56244667
ECCENTRICITY   = .00015116
INCLINATION    = 43.0000
RA_OF_ASC_NODE = 149.4049
ARG_OF_PERICENTER = 283.0726
MEAN_ANOMALY   = 221.0959

EPHEMERIS_TYPE = 0
CLASSIFICATION_TYPE = U
NORAD_CAT_ID   = 66564
ELEMENT_SET_NO = 999
REV_AT_EPOCH   = 384
BSTAR          = -.31083559E-1
MEAN_MOTION_DOT = -.2005165E-1
MEAN_MOTION_DDOT = 0

CCSDS_OMM_VERS = 2.0
CREATION_DATE  = 
ORIGINATOR     = 

OBJECT_NAME    = STARLINK-35893
OBJECT_ID      = 2025-268J
CENTER_NAME    = EARTH
REF_FRAME      = TEME
TIME_SYSTEM    = UTC
MEAN_ELEMENT_THEORY = SGP/SGP4

EPOCH          = 2025-12-07T22:00:03.000096
MEAN_MOTION    = 15.56242783
ECCENTRICITY   = .00013572
INCLINATION    = 43.0001
RA_OF_ASC_NODE = 149.3998
ARG_OF_PERICENTER = 283.7672
MEAN_ANOMALY   = 222.3193

EPHEMERIS_TYPE = 0
CLASSIFICATION_TYPE = U
NORAD_CAT_ID   = 66565
ELEMENT_SET_NO = 999
REV_AT_EPOCH   = 389
BSTAR          = -.31012636E-1
MEAN_MOTION_DOT = -.1964304E-1
MEAN_MOTION_DDOT = 0

CCSDS_OMM_VERS = 2.0
CREATION_DATE  = 
ORIGINATOR     = 

OBJECT_NAME    = STARLINK-35871
OBJECT_ID      = 2025-268K
CENTER_NAME    = EARTH
REF_FRAME      = TEME
TIME_SYSTEM    = UTC
MEAN_ELEMENT_THEORY = SGP/SGP4

EPOCH          = 2025-12-07T22:00:03.000096
MEAN_MOTION    = 15.56242089
ECCENTRICITY   = .00013036
INCLINATION    = 43.0000
RA_OF_ASC_NODE = 149.3950
ARG_OF_PERICENTER = 283.5378
MEAN_ANOMALY   = 224.4664

EPHEMERIS_TYPE = 0
CLASSIFICATION_TYPE = U
NORAD_CAT_ID   = 66566
ELEMENT_SET_NO = 999
REV_AT_EPOCH   = 389
BSTAR          = -.3100644E-1
MEAN_MOTION_DOT = -.1963878E-1
MEAN_MOTION_DDOT = 0

CCSDS_OMM_VERS = 2.0
CREATION_DATE  = 
ORIGINATOR     = 

OBJECT_NAME    = STARLINK-35825
OBJECT_ID      = 2025-268L
CENTER_NAME    = EARTH
REF_FRAME      = TEME
TIME_SYSTEM    = UTC
MEAN_ELEMENT_THEORY = SGP/SGP4

EPOCH          = 2025-12-07T22:00:03.000096
MEAN_MOTION    = 15.56244284
ECCENTRICITY   = .00013836
INCLINATION    = 43.0000
RA_OF_ASC_NODE = 149.3902
ARG_OF_PERICENTER = 278.8108
MEAN_ANOMALY   = 231.1100

EPHEMERIS_TYPE = 0
CLASSIFICATION_TYPE = U
NORAD_CAT_ID   = 66567
ELEMENT_SET_NO = 999
REV_AT_EPOCH   = 389
BSTAR          = -.31073731E-1
MEAN_MOTION_DOT = -.2004492E-1
MEAN_MOTION_DDOT = 0

CCSDS_OMM_VERS = 2.0
CREATION_DATE  = 
ORIGINATOR     = 

OBJECT_NAME    = STARLINK-35803
OBJECT_ID      = 2025-268M
CENTER_NAME    = EARTH
REF_FRAME      = TEME
TIME_SYSTEM    = UTC
MEAN_ELEMENT_THEORY = SGP/SGP4

EPOCH          = 2025-12-07T22:00:03.000096
MEAN_MOTION    = 15.56244800
ECCENTRICITY   = .00014037
INCLINATION    = 43.0000
RA_OF_ASC_NODE = 149.3851
ARG_OF_PERICENTER = 280.7556
MEAN_ANOMALY   = 231.0823

EPHEMERIS_TYPE = 0
CLASSIFICATION_TYPE = U
NORAD_CAT_ID   = 66568
ELEMENT_SET_NO = 999
REV_AT_EPOCH   = 389
BSTAR          = -.31096555E-1
MEAN_MOTION_DOT = -.2005858E-1
MEAN_MOTION_DDOT = 0

CCSDS_OMM_VERS = 2.0
CREATION_DATE  = 
ORIGINATOR     = 

OBJECT_NAME    = STARLINK-35835
OBJECT_ID      = 2025-268N
CENTER_NAME    = EARTH
REF_FRAME      = TEME
TIME_SYSTEM    = UTC
MEAN_ELEMENT_THEORY = SGP/SGP4

EPOCH          = 2025-12-07T22:00:03.000096
MEAN_MOTION    = 15.56245612
ECCENTRICITY   = .00013727
INCLINATION    = 43.0001
RA_OF_ASC_NODE = 149.3805
ARG_OF_PERICENTER = 280.7292
MEAN_ANOMALY   = 233.0241

EPHEMERIS_TYPE = 0
CLASSIFICATION_TYPE = U
NORAD_CAT_ID   = 66569
ELEMENT_SET_NO = 999
REV_AT_EPOCH   = 389
BSTAR          = -.31086076E-1
MEAN_MOTION_DOT = -.2005288E-1
MEAN_MOTION_DDOT = 0

CCSDS_OMM_VERS = 2.0
CREATION_DATE  = 
ORIGINATOR     = 

OBJECT_NAME    = STARLINK-35834
OBJECT_ID      = 2025-268P
CENTER_NAME    = EARTH
REF_FRAME      = TEME
TIME_SYSTEM    = UTC
MEAN_ELEMENT_THEORY = SGP/SGP4

EPOCH          = 2025-12-07T22:00:03.000096
MEAN_MOTION    = 15.56245416
ECCENTRICITY   = .00013613
INCLINATION    = 43.0002
RA_OF_ASC_NODE = 149.3748
ARG_OF_PERICENTER = 279.4257
MEAN_ANOMALY   = 236.2472

EPHEMERIS_TYPE = 0
CLASSIFICATION_TYPE = U
NORAD_CAT_ID   = 66570
ELEMENT_SET_NO = 999
REV_AT_EPOCH   = 389
BSTAR          = -.31116074E-1
MEAN_MOTION_DOT = -.2007E-1
MEAN_MOTION_DDOT = 0

CCSDS_OMM_VERS = 2.0
CREATION_DATE  = 
ORIGINATOR     = 

OBJECT_NAME    = STARLINK-35836
OBJECT_ID      = 2025-268Q
CENTER_NAME    = EARTH
REF_FRAME      = TEME
TIME_SYSTEM    = UTC
MEAN_ELEMENT_THEORY = SGP/SGP4

EPOCH          = 2025-12-07T22:00:03.000096
MEAN_MOTION    = 15.56246516
ECCENTRICITY   = .0001466
INCLINATION    = 43.0001
RA_OF_ASC_NODE = 149.3702
ARG_OF_PERICENTER = 277.9701
MEAN_ANOMALY   = 239.6169

EPHEMERIS_TYPE = 0
CLASSIFICATION_TYPE = U
NORAD_CAT_ID   = 66571
ELEMENT_SET_NO = 999
REV_AT_EPOCH   = 389
BSTAR          = -.31114035E-1
MEAN_MOTION_DOT = -.2007021E-1
MEAN_MOTION_DDOT = 0

CCSDS_OMM_VERS = 2.0
CREATION_DATE  = 
ORIGINATOR     = 

OBJECT_NAME    = STARLINK-35870
OBJECT_ID      = 2025-268R
CENTER_NAME    = EARTH
REF_FRAME      = TEME
TIME_SYSTEM    = UTC
MEAN_ELEMENT_THEORY = SGP/SGP4

EPOCH          = 2025-12-07T22:00:03.000096
MEAN_MOTION    = 15.56244367
ECCENTRICITY   = .00014303
INCLINATION    = 42.9998
RA_OF_ASC_NODE = 149.3666
ARG_OF_PERICENTER = 283.4148
MEAN_ANOMALY   = 236.0886

EPHEMERIS_TYPE = 0
CLASSIFICATION_TYPE = U
NORAD_CAT_ID   = 66572
ELEMENT_SET_NO = 999
REV_AT_EPOCH   = 389
BSTAR          = -.31040863E-1
MEAN_MOTION_DOT = -.2002628E-1
MEAN_MOTION_DDOT = 0

CCSDS_OMM_VERS = 2.0
CREATION_DATE  = 
ORIGINATOR     = 

OBJECT_NAME    = STARLINK-35650
OBJECT_ID      = 2025-268S
CENTER_NAME    = EARTH
REF_FRAME      = TEME
TIME_SYSTEM    = UTC
MEAN_ELEMENT_THEORY = SGP/SGP4

EPOCH          = 2025-12-07T22:00:03.000096
MEAN_MOTION    = 15.56245570
ECCENTRICITY   = .00014268
INCLINATION    = 42.9999
RA_OF_ASC_NODE = 149.3607
ARG_OF_PERICENTER = 286.4940
MEAN_ANOMALY   = 234.9261

EPHEMERIS_TYPE = 0
CLASSIFICATION_TYPE = U
NORAD_CAT_ID   = 66573
ELEMENT_SET_NO = 999
REV_AT_EPOCH   = 389
BSTAR          = -.31078435E-1
MEAN_MOTION_DOT = -.2004877E-1
MEAN_MOTION_DDOT = 0

CCSDS_OMM_VERS = 2.0
CREATION_DATE  = 
ORIGINATOR     = 

OBJECT_NAME    = STARLINK-35812
OBJECT_ID      = 2025-268T
CENTER_NAME    = EARTH
REF_FRAME      = TEME
TIME_SYSTEM    = UTC
MEAN_ELEMENT_THEORY = SGP/SGP4

EPOCH          = 2025-12-07T22:00:03.000096
MEAN_MOTION    = 15.56293375
ECCENTRICITY   = .00015865
INCLINATION    = 43.0000
RA_OF_ASC_NODE = 149.3555
ARG_OF_PERICENTER = 276.2684
MEAN_ANOMALY   = 247.0838

EPHEMERIS_TYPE = 0
CLASSIFICATION_TYPE = U
NORAD_CAT_ID   = 66574
ELEMENT_SET_NO = 999
REV_AT_EPOCH   = 389
BSTAR          = -.32782811E-1
MEAN_MOTION_DOT = -.2106205E-1
MEAN_MOTION_DDOT = 0

