STARLINK-35437          
1 66563U 25268G   25341.91670139 -.02007251  00000+0 -31118-1 0  9993
2 66563  43.0000 149.4092 0001434 282.3984 219.8518 15.56246658  3894
STARLINK-35358          
1 66564U 25268H   25341.91670139 -.02005165  00000+0 -31084-1 0  9998
2 66564  43.0000 149.4049 0001511 283.0726 221.0959 15.56244667  3842
STARLINK-35893          
1 66565U 25268J   25341.91670139 -.01964304  00000+0 -31013-1 0  9999
2 66565  43.0001 149.3998 0001357 283.7672 222.3193 15.56242783  3897
STARLINK-35871          
1 66566U 25268K   25341.91670139 -.01963878  00000+0 -31006-1 0  9997
2 66566  43.0000 149.3950 0001303 283.5378 224.4664 15.56242089  3892
STARLINK-35825          
1 66567U 25268L   25341.91670139 -.02004492  00000+0 -31074-1 0  9992
2 66567  43.0000 149.3902 0001383 278.8108 231.1100 15.56244284  3895
STARLINK-35803          
1 66568U 25268M   25341.91670139 -.02005858  00000+0 -31097-1 0  9995
2 66568  43.0000 149.3851 0001403 280.7556 231.0823 15.56244800  3896
STARLINK-35835          
1 66569U 25268N   25341.91670139 -.02005288  00000+0 -31086-1 0  9991
2 66569  43.0001 149.3805 0001372 280.7292 233.0241 15.56245612  3897
STARLINK-35834          
1 66570U 25268P   25341.91670139 -.02007000  00000+0 -31116-1 0  9991
2 66570  43.0002 149.3748 0001361 279.4257 236.2472 15.56245416  3893
STARLINK-35836          
1 66571U 25268Q   25341.91670139 -.02007021  00000+0 -31114-1 0  9993
2 66571  43.0001 149.3702 0001466 277.9701 239.6169 15.56246516  3898
STARLINK-35870          
1 66572U 25268R   25341.91670139 -.02002628  00000+0 -31041-1 0  9991
2 66572  42.9998 149.3666 0001430 283.4148 236.0886 15.56244367  3898
STARLINK-35650          
1 66573U 25268S   25341.91670139 -.02004877  00000+0 -31078-1 0  9990
2 66573  42.9999 149.3607 0001426 286.4940 234.9261 15.56245570  3894
STARLINK-35812          
1 66574U 25268T   25341.91670139 -.02106205  00000+0 -32783-1 0  9993
2 66574  43.0000 149.3555 0001586 276.2684 247.0838 15.56293375  3892
